STARLINK-31284          
1 59246U 24049R   26068.20580556 -.00002109  00000+0 -67171-4 0  9997
2 59246  43.0033 146.1340 0000917 212.5513 147.5282 15.27573933112329
TEVEL2-9                
1 63237U 25052AD  26068.70229538  .00018694  00000+0  67240-3 0  9992
2 63237  97.4057 324.3929 0007990 124.2475 235.9522 15.28633834 54816
